AMC-1 (GE-1)            
1 24315U 96054A   22319.48985733  .00000077  00000+0  00000+0 0  9995
2 24315   5.9747  71.8433 0003662 171.4221 216.7569  1.00272543 33196
AMC-3 (GE-3)            
1 24936U 97050A   22319.40027493 -.00000248  00000+0  00000+0 0  9994
2 24936   4.9117  78.0366 0003295 171.3741 237.1770  1.00272612 92314
ASTRA 1G                
1 25071U 97076A   22319.53308992  .00000128  00000+0  00000+0 0  9999
2 25071   6.5883  67.1037 0003836 171.4619  27.3598  1.00273572 91371
ASTRA 2A                
1 25462U 98050A   22319.54084760  .00000082  00000+0  00000+0 0  9990
2 25462   3.7788  83.9159 0003314 150.7395  71.8804  1.00271250 33204
AMC-4 (GE-4)            
1 25954U 99060A   22319.50258218  .00000100  00000+0  00000+0 0  9996
2 25954   1.8980  90.0601 0002833 156.2793 214.2835  1.00271634 30426
NSS-11 (AAP-1)          
1 26554U 00059A   22319.53353463  .00000037  00000+0  00000+0 0  9993
2 26554   0.0295  46.0864 0002642 208.9381 167.6714  1.00271360 28151
AMC-6 (GE-6)            
1 26580U 00067A   22319.53102656  .00000116  00000+0  00000+0 0  9995
2 26580   0.0150 316.8822 0003004 287.1709 222.7351  1.00271225 80785
ASTRA 2D                
1 26638U 00081A   22318.96022212  .00000140  00000+0  00000+0 0  9997
2 26638   7.6105  59.2661 0001705 200.6645 163.5074  1.00268097 39776
AMC-8 (GE-8)            
1 26639U 00081B   22319.48561955  .00000100  00000+0  00000+0 0  9994
2 26639   2.8246  86.9154 0000791  56.3861 311.1127  1.00274196 80205
ASTRA 2C                
1 26853U 01025A   22319.40027365 -.00000246  00000+0  00000+0 0  9997
2 26853   4.9358  77.8430 0003210 166.9413 241.3459  1.00273448 78440
ASTRA 3A                
1 27400U 02015B   22319.53663090 -.00000191  00000+0  00000+0 0  9990
2 27400   7.7092  58.1515 0002016 198.2210 264.5799  1.00271947 75596
NSS-7                   
1 27414U 02019A   22319.16673604 -.00000145  00000+0  00000+0 0  9999
2 27414   6.2502  70.0472 0002497 174.6099 209.6147  1.00271390 75434
NSS-6                   
1 27603U 02057A   22319.55211965  .00000121  00000+0  00000+0 0  9995
2 27603   1.9892  89.8432 0003852 153.5340 200.5308  1.00270375 72903
AMC-11 (GE-11)          
1 28252U 04017A   22319.49008509  .00000081  00000+0  00000+0 0  9990
2 28252   0.0178 345.9318 0002861 251.2080 222.8686  1.00271151 67752
AMC-15                  
1 28446U 04041A   22319.51962266 -.00000077  00000+0  00000+0 0  9990
2 28446   0.0185 339.5554 0002692 270.2431 246.8269  1.00272475 66199
NSS-10 (AMC-12)         
1 28526U 05003A   22319.37845931 -.00000237  00000+0  00000+0 0  9999
2 28526   3.1571  85.6970 0003037 140.8144 286.7532  1.00272003 40026
ASTRA 1KR               
1 29055U 06012A   22319.24631760  .00000132  00000+0  00000+0 0  9990
2 29055   0.0148 283.0709 0005424 312.0932 287.0452  1.00273981 32598
AMC-18                  
1 29644U 06054B   22319.53945229 -.00000203  00000+0  00000+0 0  9990
2 29644   0.0303  55.6819 0002672 183.8522 286.2948  1.00268604 58417
ASTRA 1L                
1 31306U 07016A   22319.24631760  .00000132  00000+0  00000+0 0  9997
2 31306   0.0389 337.4236 0005211 288.4409 256.3475  1.00273579 31872
ASTRA 4A (SIRIUS 4)     
1 32299U 07057A   22319.53030064  .00000045  00000+0  00000+0 0  9999
2 32299   0.0386  76.3938 0002936 161.2901  12.6602  1.00272422 38536
AMC-21                  
1 33275U 08038B   22319.49827647  .00000048  00000+0  00000+0 0  9993
2 33275   0.0588  86.1735 0002743 159.6693 223.2302  1.00273364 52364
ASTRA 1M                
1 33436U 08057A   22319.24631760  .00000131  00000+0  00000+0 0  9998
2 33436   0.0685  97.5805 0003682 100.8684 323.7563  1.00271685 32598
CIEL-2                  
1 33453U 08063A   22319.50371532  .00000070  00000+0  00000+0 0  9993
2 33453   0.0082 221.5870 0003120  17.0110 228.4810  1.00272507 51006
NSS-9                   
1 33749U 09008A   22319.54208753  .00000084  00000+0  00000+0 0  9994
2 33749   0.0178 347.7462 0002287 248.9777 196.1171  1.00271157 50397
SES-7 (PROTOSTAR 2)     
1 34941U 09027A   22319.26401208 -.00000334  00000+0  00000+0 0  9998
2 34941   0.0865  90.1643 0002175 167.4142   0.0717  1.00270550 49485
NSS-12                  
1 36032U 09058A   22319.54076043  .00000083  00000+0  00000+0 0  9991
2 36032   0.0497  88.8181 0002920 156.7233  60.7618  1.00272898 47781
SES-1                   
1 36516U 10016A   22319.52465868 -.00000103  00000+0  00000+0 0  9993
2 36516   0.0391  82.5802 0002674 155.1287 264.7900  1.00272613 45918
ASTRA 3B                
1 36581U 10021A   22319.53413590  .00000149  00000+0  00000+0 0  9996
2 36581   0.0468 340.7106 0004231 248.0832  41.6219  1.00274394 45744
SES-3                   
1 37748U 11035A   22319.52219061 -.00000090  00000+0  00000+0 0  9990
2 37748   0.0350  50.0723 0002950 196.5599 252.9669  1.00275088 41461
ASTRA 1N                
1 37775U 11041A   22319.53308992  .00000132  00000+0  00000+0 0  9996
2 37775   0.0816  61.9650 0000934 257.8912 305.8897  1.00272193 31394
SES-2                   
1 37809U 11049A   22319.53608428 -.00000184  00000+0  00000+0 0  9997
2 37809   0.0120 338.2818 0002536 264.7712 277.5586  1.00270216 40834
QUETZSAT 1              
1 37826U 11054A   22319.51408796 -.00000229  00000+0  00000+0 0  9996
2 37826   0.0444  83.5226 0002805 148.9735 290.1748  1.00270321 36756
SES-4                   
1 38087U 12007A   22319.38159725 -.00000156  00000+0  00000+0 0  9994
2 38087   0.0170 339.4843 0002373 258.1542 292.2079  1.00270573 39101
SES-5                   
1 38652U 12036A   22319.53038781  .00000046  00000+0  00000+0 0  9996
2 38652   0.0589 293.1740 0002130 305.7523  11.6161  1.00271985 31356
ASTRA 2F                
1 38778U 12051A   22319.46327080  .00000162  00000+0  00000+0 0  9996
2 38778   0.0745 251.8311 0004764 338.0728  19.6490  1.00270205 37156
SES-6                   
1 39172U 13026A   22319.37784914 -.00000249  00000+0  00000+0 0  9998
2 39172   0.0212 320.4150 0002458 278.9506 270.6309  1.00273896 34594
O3B FM5                 
1 39188U 13031A   22319.19468880 -.00000021  00000+0  00000+0 0  9990
2 39188   0.0659  12.6103 0002759 226.7362 120.6321  5.00115415171494
O3B FM4                 
1 39189U 13031B   22319.45054609 -.00000020  00000+0  00000+0 0  9999
2 39189   0.0450 353.0225 0002711 246.3723 120.5843  5.00115902171532
O3B FM2                 
1 39190U 13031C   22319.14222975 -.00000021  00000+0  00000+0 0  9991
2 39190   0.0430 346.9186 0002715 250.4568 122.6042  5.00115170171571
O3B PFM                 
1 39191U 13031D   22319.16849123 -.00000021  00000+0  00000+0 0  9994
2 39191   0.0577   9.2333 0002722 225.9923 124.7546  5.00115812171134
ASTRA 2E                
1 39285U 13056A   22319.53509471  .00000162  00000+0  00000+0 0  9990
2 39285   0.0735 323.7690 0002359 265.1638  46.8233  1.00270538 33305
SES-8                   
1 39460U 13071A   22319.54834378 -.00000258  00000+0  00000+0 0  9997
2 39460   0.0240 261.9013 0001004 320.8668 124.2730  1.00273653 32742
ASTRA 5B                
1 39617U 14011B   22319.53570487  .00000166  00000+0  00000+0 0  9990
2 39617   0.0710 303.3059 0004182 281.2030  54.4964  1.00270666 31532
O3B FM3                 
1 40079U 14038A   22319.42318892 -.00000020  00000+0  00000+0 0  9991
2 40079   0.0505 359.6082 0004643 211.6935 148.6764  5.00115415147526
O3B FM7                 
1 40080U 14038B   22319.16936588 -.00000021  00000+0  00000+0 0  9993
2 40080   0.0510 354.6436 0002489 283.0706  82.2634  5.00115574152348
O3B FM6                 
1 40081U 14038C   22319.39564618 -.00000020  00000+0  00000+0 0  9999
2 40081   0.0495 359.5507 0002788 236.2454 124.1833  5.00115386152300
O3B FM8                 
1 40082U 14038D   22319.44953397 -.00000020  00000+0  00000+0 0  9992
2 40082   0.0466 357.7369 0002674 235.1470 127.0975  5.00115729152428
O3B FM10                
1 40348U 14083A   22319.07587020 -.00000021  00000+0  00000+0 0  9993
2 40348   0.0526   9.2689 0002698 225.5619 125.1497  5.00115232144358
O3B FM11                
1 40349U 14083B   22318.88940816 -.00000021  00000+0  00000+0 0  9998
2 40349   0.0563   6.2156 0002839 242.8372 110.9226  5.00115431144365
O3B FM12                
1 40350U 14083C   22319.31641205 -.00000020  00000+0  00000+0 0  9998
2 40350   0.0554   5.9370 0002879 231.3789 122.6621  5.00115285144399
O3B FM9                 
1 40351U 14083D   22319.14331134 -.00000021  00000+0  00000+0 0  9998
2 40351   0.0574   5.8240 0002693 230.2407 123.9155  5.00116181144534
ASTRA 2G                
1 40364U 14089A   22319.53509471  .00000162  00000+0  00000+0 0  9997
2 40364   0.0452  38.2383 0000883   9.6526 227.5930  1.00271426 28836
SES-9                   
1 41380U 16013A   22319.26409925 -.00000334  00000+0  00000+0 0  9990
2 41380   0.0187 293.3918 0000814 241.6966  82.6457  1.00269986 24308
SES-10                  
1 42432U 17017A   22319.40510047 -.00000261  00000+0  00000+0 0  9997
2 42432   0.0099 341.3942 0003258 263.8473 248.2019  1.00275221 20617
SES-15                  
1 42709U 17026A   22319.49166174  .00000072  00000+0  00000+0 0  9990
2 42709   0.0214 352.9361 0000454 257.0047 212.4852  1.00267651 21014
SES-11 (ECHOSTAR 105)   
1 42967U 17063A   22319.50850940 -.00000077  00000+0  00000+0 0  9996
2 42967   0.0153 316.3016 0002955 289.3362 247.0828  1.00272202 18593
SES-14                  
1 43175U 18012B   22319.51992801 -.00000266  00000+0  00000+0 0  9997
2 43175   0.0156 304.8108 0001190 293.9088 315.5649  1.00270269 17927
O3B FM15                
1 43231U 18024A   22319.40914636 -.00000020  00000+0  00000+0 0  9999
2 43231   0.0502  12.1690 0003041 224.4839 123.3239  5.00116146 85506
O3B FM16                
1 43232U 18024B   22319.26266350 -.00000020  00000+0  00000+0 0  9997
2 43232   0.0485  16.6573 0003028 220.4241 122.8953  5.00115983 85419
O3B FM14                
1 43233U 18024C   22319.30236899 -.00000020  00000+0  00000+0 0  9998
2 43233   0.0474  17.9789 0002925 222.2433 119.7545  5.00115389 85422
O3B FM13                
1 43234U 18024D   22319.35589906 -.00000020  00000+0  00000+0 0  9994
2 43234   0.0600  11.5918 0003857 226.9943 121.3820  5.00115310 85542
SES-12                  
1 43488U 18049A   22319.47660703 -.00000258  00000+0  00000+0 0  9993
2 43488   0.0414  78.4882 0002626 181.4494  61.2110  1.00270944 16287
O3B FM20                
1 44112U 19020A   22319.32906329 -.00000020  00000+0  00000+0 0  9996
2 44112   0.0520   8.8977 0003300 232.6379 118.4370  5.00115498 66041
O3B FM19                
1 44113U 19020B   22319.35590765 -.00000020  00000+0  00000+0 0  9993
2 44113   0.0750  12.8332 0002156 251.8621  95.2859  5.00115198 65914
O3B FM17                
1 44114U 19020C   22319.43635625 -.00000020  00000+0  00000+0 0  9998
2 44114   0.0324   7.5527 0003164 228.9267 123.4961  5.00115673 66007
O3B FM18                
1 44115U 19020D   22319.38285433 -.00000020  00000+0  00000+0 0  9991
2 44115   0.0524   8.9546 0002950 226.0043 125.0192  5.00115819 66128
SES-17                  
1 49332U 21095A   22319.40510083 -.00000260  00000+0  00000+0 0  9993
2 49332   0.0058 322.4583 0001178 277.9394 252.8336  1.00269959  4713
SES-22                  
1 52933U 22071A   22319.48561987  .00000100  00000+0  00000+0 0  9998
2 52933   0.0167 284.2488 0002693 318.1519 211.9957  1.00272260  1423
